ONEWEB-0520             
1 54138U 22138AB  25214.47186203  .00000058  00000+0  11377-3 0  9996
2 54138  87.9237   8.3047 0002087  87.3511 272.7860 13.19725611134784
ONEWEB-0521             
1 54139U 22138AC  25214.50502288 -.00000124  00000+0 -34258-3 0  9995
2 54139  87.9235   8.2849 0001870 103.4036 256.7305 13.19725703135636
ONEWEB-0522             
1 54140U 22138AD  25214.48448888 -.00000085  00000+0 -24432-3 0  9998
2 54140  87.9235   8.2903 0001864  91.7662 268.3684 13.19724630134777
ONEWEB-0523             
1 54141U 22138AE  25214.62469991  .00000006  00000+0 -17509-4 0  9993
2 54141  87.9295 337.9140 0001381 123.0837 237.0429 13.20771515137258
ONEWEB-0524             
1 54142U 22138AF  25214.38637737  .00000034  00000+0  51170-4 0  9994
2 54142  87.9289 337.9624 0001119  78.7217 281.4042 13.20770808137221
ONEWEB-0525             
1 54143U 22138AG  25214.42762873 -.00000082  00000+0 -23736-3 0  9991
2 54143  87.9237   8.3215 0002079  88.9551 271.1820 13.19725920134781
ONEWEB-0526             
1 54144U 22138AH  25214.46081364  .00000051  00000+0  95401-4 0  9998
2 54144  87.9236   8.3029 0001879  91.4298 268.7050 13.19725628134768
ONEWEB-0529             
1 54145U 22138AJ  25214.46397715  .00000105  00000+0  23028-3 0  9994
2 54145  87.9229   8.3449 0001994  88.1125 272.0237 13.19725289134787
